{"type": "FeatureCollection", "features": [ {"type": "Feature", "properties": {"norad_id": 33917, "name": "COSMOS 2251 DEB", "group": "cosmos-2251-debris", "lat": 9.301040671261312, "lon": -48.92268127159613, "alt_km": 897.1412424422342, "timestamp": "2025-12-05T19:30:25.959925+00:00", "meta": {"OBJECT_NAME": "COSMOS 2251 DEB", "OBJECT_ID": "1993-036DW", "EPOCH": "2025-12-04T19:51:10.152576", "MEAN_MOTION": 13.69340545, "ECCENTRICITY": 0.0331127, "INCLINATION": 74.1065, "RA_OF_ASC_NODE": 135.3672, "ARG_OF_PERICENTER": 238.0714, "MEAN_ANOMALY": 118.7809, "EPHEMERIS_TYPE": 0, "CLASSIFICATION_TYPE": "U", "NORAD_CAT_ID": 33917, "ELEMENT_SET_NO": 999, "REV_AT_EPOCH": 83625, "BSTAR": 0.0011749326, "MEAN_MOTION_DOT": 1.476e-05, "MEAN_MOTION_DDOT": 0}, "tle": {"line1": "1 33917U 93036DW  25338.82720084  .00001476  00000+0  11749-2 0  9997", "line2": "2 33917  74.1065 135.3672 0331127 238.0714 118.7809 13.69340545836255"}}, "geometry": {"type": "Point", "coordinates": [-48.92268127159613, 9.301040671261312]}}, {"type": "Feature", "properties": {"norad_id": 33920, "name": "COSMOS 2251 DEB", "group": "cosmos-2251-debris", "lat": -21.26375093230646, "lon": 137.9743524698274, "alt_km": 716.6231214418885, "timestamp": "2025-12-05T19:30:25.959935+00:00", "meta": {"OBJECT_NAME": "COSMOS 2251 DEB", "OBJECT_ID": "1993-036DZ", "EPOCH": "2025-12-03T23:45:57.286368", "MEAN_MOTION": 14.5801116, "ECCENTRICITY": 0.00385766, "INCLINATION": 74.0629, "RA_OF_ASC_NODE": 315.0497, "ARG_OF_PERICENTER": 322.9779, "MEAN_ANOMALY": 36.8724, "EPHEMERIS_TYPE": 0, "CLASSIFICATION_TYPE": "U", "NORAD_CAT_ID": 33920, "ELEMENT_SET_NO": 999, "REV_AT_EPOCH": 87987, "BSTAR": 0.0041324358, "MEAN_MOTION_DOT": 0.00019211, "MEAN_MOTION_DDOT": 0}, "tle": {"line1": "1 33920U 93036DZ  25337.99024637  .00019211  00000+0  41324-2 0  9997", "line2": "2 33920  74.0629 315.0497 0038576 322.9779  36.8724 14.58011160879870"}}, "geometry": {"type": "Point", "coordinates": [137.9743524698274, -21.26375093230646]}}, {"type": "Feature", "properties": {"norad_id": 33922, "name": "COSMOS 2251 DEB", "group": "cosmos-2251-debris", "lat": -19.860686329289777, "lon": -13.317774768972178, "alt_km": 726.9223887304943, "timestamp": "2025-12-05T19:30:25.959946+00:00", "meta": {"OBJECT_NAME": "COSMOS 2251 DEB", "OBJECT_ID": "1993-036EB", "EPOCH": "2025-12-04T23:15:21.415104", "MEAN_MOTION": 14.4946451, "ECCENTRICITY": 0.0023263, "INCLINATION": 74.046, "RA_OF_ASC_NODE": 162.3327, "ARG_OF_PERICENTER": 273.9086, "MEAN_ANOMALY": 205.6877, "EPHEMERIS_TYPE": 0, "CLASSIFICATION_TYPE": "U", "NORAD_CAT_ID": 33922, "ELEMENT_SET_NO": 999, "REV_AT_EPOCH": 88465, "BSTAR": 0.00084781, "MEAN_MOTION_DOT": 3.231e-05, "MEAN_MOTION_DDOT": 0}, "tle": {"line1": "1 33922U 93036EB  25338.96899786  .00003231  00000+0  84781-3 0  9992", "line2": "2 33922  74.0460 162.3327 0023263 273.9086 205.6877 14.49464510884651"}}, "geometry": {"type": "Point", "coordinates": [-13.317774768972178, -19.860686329289777]}}, {"type": "Feature", "properties": {"norad_id": 33924, "name": "COSMOS 2251 DEB", "group": "cosmos-2251-debris", "lat": 73.77446380756787, "lon": 3.8926116899750203, "alt_km": 1249.9951231303576, "timestamp": "2025-12-05T19:30:25.959956+00:00", "meta": {"OBJECT_NAME": "COSMOS 2251 DEB", "OBJECT_ID": "1993-036ED", "EPOCH": "2025-12-05T06:37:46.068096", "MEAN_MOTION": 13.50201633, "ECCENTRICITY": 0.04040681, "INCLINATION": 73.9132, "RA_OF_ASC_NODE": 282.1982, "ARG_OF_PERICENTER": 318.9581, "MEAN_ANOMALY": 38.1754, "EPHEMERIS_TYPE": 0, "CLASSIFICATION_TYPE": "U", "NORAD_CAT_ID": 33924, "ELEMENT_SET_NO": 999, "REV_AT_EPOCH": 82638, "BSTAR": 0.0019240168, "MEAN_MOTION_DOT": 2.017e-05, "MEAN_MOTION_DDOT": 0}, "tle": {"line1": "1 33924U 93036ED  25339.27622764  .00002017  00000+0  19240-2 0  9997", "line2": "2 33924  73.9132 282.1982 0404068 318.9581  38.1754 13.50201633826386"}}, "geometry": {"type": "Point", "coordinates": [3.8926116899750203, 73.77446380756787]}}, {"type": "Feature", "properties": {"norad_id": 33928, "name": "COSMOS 2251 DEB", "group": "cosmos-2251-debris", "lat": 72.42093381342696, "lon": -179.9123161372169, "alt_km": 731.1045296575994, "timestamp": "2025-12-05T19:30:25.959967+00:00", "meta": {"OBJECT_NAME": "COSMOS 2251 DEB", "OBJECT_ID": "1993-036EH", "EPOCH": "2025-12-05T05:47:33.523872", "MEAN_MOTION": 14.47382764, "ECCENTRICITY": 0.00610903, "INCLINATION": 73.9259, "RA_OF_ASC_NODE": 66.6818, "ARG_OF_PERICENTER": 2.4507, "MEAN_ANOMALY": 357.6938, "EPHEMERIS_TYPE": 0, "CLASSIFICATION_TYPE": "U", "NORAD_CAT_ID": 33928, "ELEMENT_SET_NO": 999, "REV_AT_EPOCH": 88536, "BSTAR": 0.00044992702, "MEAN_MOTION_DOT": 1.66e-05, "MEAN_MOTION_DDOT": 0}, "tle": {"line1": "1 33928U 93036EH  25339.24136023  .00001660  00000+0  44993-3 0  9993", "line2": "2 33928  73.9259  66.6818 0061090   2.4507 357.6938 14.47382764885368"}}, "geometry": {"type": "Point", "coordinates": [-179.9123161372169, 72.42093381342696]}}, {"type": "Feature", "properties": {"norad_id": 33932, "name": "COSMOS 2251 DEB", "group": "cosmos-2251-debris", "lat": 74.02379863104137, "lon": 58.19299190787656, "alt_km": 736.9893046571178, "timestamp": "2025-12-05T19:30:25.959978+00:00", "meta": {"OBJECT_NAME": "COSMOS 2251 DEB", "OBJECT_ID": "1993-036EM", "EPOCH": "2025-12-05T07:24:43.566048", "MEAN_MOTION": 14.38723454, "ECCENTRICITY": 0.00349541, "INCLINATION": 74.0342, "RA_OF_ASC_NODE": 329.6229, "ARG_OF_PERICENTER": 47.9129, "MEAN_ANOMALY": 312.4989, "EPHEMERIS_TYPE": 0, "CLASSIFICATION_TYPE": "U", "NORAD_CAT_ID": 33932, "ELEMENT_SET_NO": 999, "REV_AT_EPOCH": 87891, "BSTAR": 0.00089313085, "MEAN_MOTION_DOT": 2.736e-05, "MEAN_MOTION_DDOT": 0}, "tle": {"line1": "1 33932U 93036EM  25339.30883757  .00002736  00000+0  89313-3 0  9998", "line2": "2 33932  74.0342 329.6229 0034954  47.9129 312.4989 14.38723454878912"}}, "geometry": {"type": "Point", "coordinates": [58.19299190787656, 74.02379863104137]}}, {"type": "Feature", "properties": {"norad_id": 33933, "name": "COSMOS 2251 DEB", "group": "cosmos-2251-debris", "lat": 63.800897127184946, "lon": 108.19152397781198, "alt_km": 724.4270290298591, "timestamp": "2025-12-05T19:30:25.959989+00:00", "meta": {"OBJECT_NAME": "COSMOS 2251 DEB", "OBJECT_ID": "1993-036EN", "EPOCH": "2025-12-05T07:27:54.813312", "MEAN_MOTION": 14.33469604, "ECCENTRICITY": 0.00708243, "INCLINATION": 74.0892, "RA_OF_ASC_NODE": 73.6749, "ARG_OF_PERICENTER": 84.3248, "MEAN_ANOMALY": 276.5974, "EPHEMERIS_TYPE": 0, "CLASSIFICATION_TYPE": "U", "NORAD_CAT_ID": 33933, "ELEMENT_SET_NO": 999, "REV_AT_EPOCH": 87678, "BSTAR": 0.00056954225, "MEAN_MOTION_DOT": 1.593e-05, "MEAN_MOTION_DDOT": 0}, "tle": {"line1": "1 33933U 93036EN  25339.31105108  .00001593  00000+0  56954-3 0  9992", "line2": "2 33933  74.0892  73.6749 0070824  84.3248 276.5974 14.33469604876785"}}, "geometry": {"type": "Point", "coordinates": [108.19152397781198, 63.800897127184946]}}, {"type": "Feature", "properties": {"norad_id": 33934, "name": "COSMOS 2251 DEB", "group": "cosmos-2251-debris", "lat": -73.95578762288551, "lon": 18.21683939121736, "alt_km": 693.6601372949699, "timestamp": "2025-12-05T19:30:25.960000+00:00", "meta": {"OBJECT_NAME": "COSMOS 2251 DEB", "OBJECT_ID": "1993-036EP", "EPOCH": "2025-12-05T01:49:26.146848", "MEAN_MOTION": 14.58997755, "ECCENTRICITY": 0.00159704, "INCLINATION": 74.0372, "RA_OF_ASC_NODE": 115.1714, "ARG_OF_PERICENTER": 238.8119, "MEAN_ANOMALY": 121.1482, "EPHEMERIS_TYPE": 0, "CLASSIFICATION_TYPE": "U", "NORAD_CAT_ID": 33934, "ELEMENT_SET_NO": 999, "REV_AT_EPOCH": 88627, "BSTAR": 0.002088416, "MEAN_MOTION_DOT": 9.808e-05, "MEAN_MOTION_DDOT": 0}, "tle": {"line1": "1 33934U 93036EP  25339.07599707  .00009808  00000+0  20884-2 0  9997", "line2": "2 33934  74.0372 115.1714 0015970 238.8119 121.1482 14.58997755886271"}}, "geometry": {"type": "Point", "coordinates": [18.21683939121736, -73.95578762288551]}}, {"type": "Feature", "properties": {"norad_id": 33936, "name": "COSMOS 2251 DEB", "group": "cosmos-2251-debris", "lat": 12.545248487114455, "lon": -132.9329252742048, "alt_km": 678.3031569802779, "timestamp": "2025-12-05T19:30:25.960010+00:00", "meta": {"OBJECT_NAME": "COSMOS 2251 DEB", "OBJECT_ID": "1993-036ER", "EPOCH": "2025-12-05T07:14:02.655168", "MEAN_MOTION": 14.60192332, "ECCENTRICITY": 0.00280283, "INCLINATION": 74.0197, "RA_OF_ASC_NODE": 51.6998, "ARG_OF_PERICENTER": 208.4357, "MEAN_ANOMALY": 151.5281, "EPHEMERIS_TYPE": 0, "CLASSIFICATION_TYPE": "U", "NORAD_CAT_ID": 33936, "ELEMENT_SET_NO": 999, "REV_AT_EPOCH": 88781, "BSTAR": 0.0014951048, "MEAN_MOTION_DOT": 7.222e-05, "MEAN_MOTION_DDOT": 0}, "tle": {"line1": "1 33936U 93036ER  25339.30141962  .00007222  00000+0  14951-2 0  9997", "line2": "2 33936  74.0197  51.6998 0028028 208.4357 151.5281 14.60192332887817"}}, "geometry": {"type": "Point", "coordinates": [-132.9329252742048, 12.545248487114455]}}, {"type": "Feature", "properties": {"norad_id": 33938, "name": "COSMOS 2251 DEB", "group": "cosmos-2251-debris", "lat": -3.80034142880162, "lon": -140.98024220741164, "alt_km": 732.1925857797642, "timestamp": "2025-12-05T19:30:25.960021+00:00", "meta": {"OBJECT_NAME": "COSMOS 2251 DEB", "OBJECT_ID": "1993-036ET", "EPOCH": "2025-12-05T03:38:39.541056", "MEAN_MOTION": 14.46757694, "ECCENTRICITY": 0.00168691, "INCLINATION": 74.0459, "RA_OF_ASC_NODE": 221.342, "ARG_OF_PERICENTER": 304.0866, "MEAN_ANOMALY": 210.8506, "EPHEMERIS_TYPE": 0, "CLASSIFICATION_TYPE": "U", "NORAD_CAT_ID": 33938, "ELEMENT_SET_NO": 999, "REV_AT_EPOCH": 88290, "BSTAR": 0.00099198787, "MEAN_MOTION_DOT": 3.571e-05, "MEAN_MOTION_DDOT": 0}, "tle": {"line1": "1 33938U 93036ET  25339.15184654  .00003571  00000+0  99199-3 0  9998", "line2": "2 33938  74.0459 221.3420 0016869 304.0866 210.8506 14.46757694882900"}}, "geometry": {"type": "Point", "coordinates": [-140.98024220741164, -3.80034142880162]}}]}